DELTA 2 R/B(1)          
1 20453U 90008B   26006.28478228  .00047983  00000+0  71789-3 0  9991
2 20453  35.6035 221.7624 0104371  41.5223 319.3383 15.47758421916432
COSMOS 2058             
1 20465U 90010A   26006.33325037  .00004796  00000+0  28727-3 0  9991
2 20465  82.4714 108.8413 0010059 185.1332 174.9796 15.10751248932829
SL-14 R/B               
1 20466U 90010B   26006.29748112  .00000661  00000+0  77211-4 0  9990
2 20466  82.5036 325.9829 0020734 141.8407 218.4281 14.83500778919236
SL-14 R/B               
1 20511U 90018B   26006.25518612  .00000643  00000+0  77940-4 0  9994
2 20511  82.5222 281.4534 0015130 300.6509  59.3213 14.82078059913338
HST                     
1 20580U 90037B   26005.36698112  .00008156  00000+0  27853-3 0  9990
2 20580  28.4668 111.6230 0002481 126.0839 233.9986 15.28406255763610
SL-16 R/B               
1 20625U 90046B   26006.27620017  .00000365  00000+0  21288-3 0  9990
2 20625  70.9997  68.9933 0012893  31.6650 328.5245 14.15002582839568
COSMOS 2084             
1 20663U 90055A   26006.21686377  .00003667  00000+0  26778-3 0  9994
2 20663  62.7889 188.5806 0027618 178.2286 181.8918 15.05198270926914
SL-6 R/B(2)             
1 20666U 90055D   26006.24867636  .00002667  00000+0  21009-3 0  9990
2 20666  62.7840 106.1305 0015801 324.4871  35.5175 15.03225832928803
SL-8 R/B                
1 20775U 90078B   26006.30282234  .00014868  00000+0  45443-3 0  9992
2 20775  82.9069 307.3105 0369037 223.1624 134.0127 14.86826425800028
SL-8 R/B                
1 21088U 91006B   26006.32462333  .00000020  00000+0  44962-5 0  9996
2 21088  82.9409 216.4252 0021825 207.3448 325.7536 13.77492900755483
OKEAN-3                 
1 21397U 91039A   26006.16241398  .00004164  00000+0  29645-3 0  9995
2 21397  82.5155  37.4023 0014421 177.4961 182.6340 15.04302849855633
COSMOS 2151             
1 21422U 91042A   26006.24287130  .00002922  00000+0  23387-3 0  9998
2 21422  82.4977 143.8893 0011144 270.7585  89.2362 14.99811418853834
