CCSDS_OMM_VERS = 2.0
CREATION_DATE  = 
ORIGINATOR     = 

OBJECT_NAME    = DELTA 2 R/B(1)
OBJECT_ID      = 1990-008B
CENTER_NAME    = EARTH
REF_FRAME      = TEME
TIME_SYSTEM    = UTC
MEAN_ELEMENT_THEORY = SGP/SGP4

EPOCH          = 2026-01-06T06:50:05.188992
MEAN_MOTION    = 15.47758421
ECCENTRICITY   = .01043711
INCLINATION    = 35.6035
RA_OF_ASC_NODE = 221.7624
ARG_OF_PERICENTER = 41.5223
MEAN_ANOMALY   = 319.3383

EPHEMERIS_TYPE = 0
CLASSIFICATION_TYPE = U
NORAD_CAT_ID   = 20453
ELEMENT_SET_NO = 999
REV_AT_EPOCH   = 91643
BSTAR          = .7178881E-3
MEAN_MOTION_DOT = .47983E-3
MEAN_MOTION_DDOT = 0

CCSDS_OMM_VERS = 2.0
CREATION_DATE  = 
ORIGINATOR     = 

OBJECT_NAME    = COSMOS 2058
OBJECT_ID      = 1990-010A
CENTER_NAME    = EARTH
REF_FRAME      = TEME
TIME_SYSTEM    = UTC
MEAN_ELEMENT_THEORY = SGP/SGP4

EPOCH          = 2026-01-06T07:59:52.831968
MEAN_MOTION    = 15.10751248
ECCENTRICITY   = .00100591
INCLINATION    = 82.4714
RA_OF_ASC_NODE = 108.8413
ARG_OF_PERICENTER = 185.1332
MEAN_ANOMALY   = 174.9796

EPHEMERIS_TYPE = 0
CLASSIFICATION_TYPE = U
NORAD_CAT_ID   = 20465
ELEMENT_SET_NO = 999
REV_AT_EPOCH   = 93282
BSTAR          = .28727173E-3
MEAN_MOTION_DOT = .4796E-4
MEAN_MOTION_DDOT = 0

CCSDS_OMM_VERS = 2.0
CREATION_DATE  = 
ORIGINATOR     = 

OBJECT_NAME    = SL-14 R/B
OBJECT_ID      = 1990-010B
CENTER_NAME    = EARTH
REF_FRAME      = TEME
TIME_SYSTEM    = UTC
MEAN_ELEMENT_THEORY = SGP/SGP4

EPOCH          = 2026-01-06T07:08:22.368768
MEAN_MOTION    = 14.83500778
ECCENTRICITY   = .00207341
INCLINATION    = 82.5036
RA_OF_ASC_NODE = 325.9829
ARG_OF_PERICENTER = 141.8407
MEAN_ANOMALY   = 218.4281

EPHEMERIS_TYPE = 0
CLASSIFICATION_TYPE = U
NORAD_CAT_ID   = 20466
ELEMENT_SET_NO = 999
REV_AT_EPOCH   = 91923
BSTAR          = .77211394E-4
MEAN_MOTION_DOT = .661E-5
MEAN_MOTION_DDOT = 0

CCSDS_OMM_VERS = 2.0
CREATION_DATE  = 
ORIGINATOR     = 

OBJECT_NAME    = SL-14 R/B
OBJECT_ID      = 1990-018B
CENTER_NAME    = EARTH
REF_FRAME      = TEME
TIME_SYSTEM    = UTC
MEAN_ELEMENT_THEORY = SGP/SGP4

EPOCH          = 2026-01-06T06:07:28.080768
MEAN_MOTION    = 14.82078059
ECCENTRICITY   = .00151304
INCLINATION    = 82.5222
RA_OF_ASC_NODE = 281.4534
ARG_OF_PERICENTER = 300.6509
MEAN_ANOMALY   = 59.3213

EPHEMERIS_TYPE = 0
CLASSIFICATION_TYPE = U
NORAD_CAT_ID   = 20511
ELEMENT_SET_NO = 999
REV_AT_EPOCH   = 91333
BSTAR          = .77939512E-4
MEAN_MOTION_DOT = .643E-5
MEAN_MOTION_DDOT = 0

CCSDS_OMM_VERS = 2.0
CREATION_DATE  = 
ORIGINATOR     = 

OBJECT_NAME    = HST
OBJECT_ID      = 1990-037B
CENTER_NAME    = EARTH
REF_FRAME      = TEME
TIME_SYSTEM    = UTC
MEAN_ELEMENT_THEORY = SGP/SGP4

EPOCH          = 2026-01-05T08:48:27.168768
MEAN_MOTION    = 15.28406255
ECCENTRICITY   = .00024817
INCLINATION    = 28.4668
RA_OF_ASC_NODE = 111.6230
ARG_OF_PERICENTER = 126.0839
MEAN_ANOMALY   = 233.9986

EPHEMERIS_TYPE = 0
CLASSIFICATION_TYPE = U
NORAD_CAT_ID   = 20580
ELEMENT_SET_NO = 999
REV_AT_EPOCH   = 76361
BSTAR          = .27853473E-3
MEAN_MOTION_DOT = .8156E-4
MEAN_MOTION_DDOT = 0

CCSDS_OMM_VERS = 2.0
CREATION_DATE  = 
ORIGINATOR     = 

OBJECT_NAME    = SL-16 R/B
OBJECT_ID      = 1990-046B
CENTER_NAME    = EARTH
REF_FRAME      = TEME
TIME_SYSTEM    = UTC
MEAN_ELEMENT_THEORY = SGP/SGP4

EPOCH          = 2026-01-06T06:37:43.694688
MEAN_MOTION    = 14.15002582
ECCENTRICITY   = .00128936
INCLINATION    = 70.9997
RA_OF_ASC_NODE = 68.9933
ARG_OF_PERICENTER = 31.6650
MEAN_ANOMALY   = 328.5245

EPHEMERIS_TYPE = 0
CLASSIFICATION_TYPE = U
NORAD_CAT_ID   = 20625
ELEMENT_SET_NO = 999
REV_AT_EPOCH   = 83956
BSTAR          = .21288039E-3
MEAN_MOTION_DOT = .365E-5
MEAN_MOTION_DDOT = 0

CCSDS_OMM_VERS = 2.0
CREATION_DATE  = 
ORIGINATOR     = 

OBJECT_NAME    = COSMOS 2084
OBJECT_ID      = 1990-055A
CENTER_NAME    = EARTH
REF_FRAME      = TEME
TIME_SYSTEM    = UTC
MEAN_ELEMENT_THEORY = SGP/SGP4

EPOCH          = 2026-01-06T05:12:17.029728
MEAN_MOTION    = 15.05198270
ECCENTRICITY   = .00276181
INCLINATION    = 62.7889
RA_OF_ASC_NODE = 188.5806
ARG_OF_PERICENTER = 178.2286
MEAN_ANOMALY   = 181.8918

EPHEMERIS_TYPE = 0
CLASSIFICATION_TYPE = U
NORAD_CAT_ID   = 20663
ELEMENT_SET_NO = 999
REV_AT_EPOCH   = 92691
BSTAR          = .26777768E-3
MEAN_MOTION_DOT = .3667E-4
MEAN_MOTION_DDOT = 0

CCSDS_OMM_VERS = 2.0
CREATION_DATE  = 
ORIGINATOR     = 

OBJECT_NAME    = SL-6 R/B(2)
OBJECT_ID      = 1990-055D
CENTER_NAME    = EARTH
REF_FRAME      = TEME
TIME_SYSTEM    = UTC
MEAN_ELEMENT_THEORY = SGP/SGP4

EPOCH          = 2026-01-06T05:58:05.637504
MEAN_MOTION    = 15.03225832
ECCENTRICITY   = .00158016
INCLINATION    = 62.7840
RA_OF_ASC_NODE = 106.1305
ARG_OF_PERICENTER = 324.4871
MEAN_ANOMALY   = 35.5175

EPHEMERIS_TYPE = 0
CLASSIFICATION_TYPE = U
NORAD_CAT_ID   = 20666
ELEMENT_SET_NO = 999
REV_AT_EPOCH   = 92880
BSTAR          = .21008758E-3
MEAN_MOTION_DOT = .2667E-4
MEAN_MOTION_DDOT = 0

CCSDS_OMM_VERS = 2.0
CREATION_DATE  = 
ORIGINATOR     = 

OBJECT_NAME    = SL-8 R/B
OBJECT_ID      = 1990-078B
CENTER_NAME    = EARTH
REF_FRAME      = TEME
TIME_SYSTEM    = UTC
MEAN_ELEMENT_THEORY = SGP/SGP4

EPOCH          = 2026-01-06T07:16:03.850176
MEAN_MOTION    = 14.86826425
ECCENTRICITY   = .03690378
INCLINATION    = 82.9069
RA_OF_ASC_NODE = 307.3105
ARG_OF_PERICENTER = 223.1624
MEAN_ANOMALY   = 134.0127

EPHEMERIS_TYPE = 0
CLASSIFICATION_TYPE = U
NORAD_CAT_ID   = 20775
ELEMENT_SET_NO = 999
REV_AT_EPOCH   = 80002
BSTAR          = .45442633E-3
MEAN_MOTION_DOT = .14868E-3
MEAN_MOTION_DDOT = 0

CCSDS_OMM_VERS = 2.0
CREATION_DATE  = 
ORIGINATOR     = 

OBJECT_NAME    = SL-8 R/B
OBJECT_ID      = 1991-006B
CENTER_NAME    = EARTH
REF_FRAME      = TEME
TIME_SYSTEM    = UTC
MEAN_ELEMENT_THEORY = SGP/SGP4

EPOCH          = 2026-01-06T07:47:27.455712
MEAN_MOTION    = 13.77492900
ECCENTRICITY   = .00218254
INCLINATION    = 82.9409
RA_OF_ASC_NODE = 216.4252
ARG_OF_PERICENTER = 207.3448
MEAN_ANOMALY   = 325.7536

EPHEMERIS_TYPE = 0
CLASSIFICATION_TYPE = U
NORAD_CAT_ID   = 21088
ELEMENT_SET_NO = 999
REV_AT_EPOCH   = 75548
BSTAR          = .4496217E-5
MEAN_MOTION_DOT = .2E-6
MEAN_MOTION_DDOT = 0

CCSDS_OMM_VERS = 2.0
CREATION_DATE  = 
ORIGINATOR     = 

OBJECT_NAME    = OKEAN-3
OBJECT_ID      = 1991-039A
CENTER_NAME    = EARTH
REF_FRAME      = TEME
TIME_SYSTEM    = UTC
MEAN_ELEMENT_THEORY = SGP/SGP4

EPOCH          = 2026-01-06T03:53:52.567872
MEAN_MOTION    = 15.04302849
ECCENTRICITY   = .00144212
INCLINATION    = 82.5155
RA_OF_ASC_NODE = 37.4023
ARG_OF_PERICENTER = 177.4961
MEAN_ANOMALY   = 182.6340

EPHEMERIS_TYPE = 0
CLASSIFICATION_TYPE = U
NORAD_CAT_ID   = 21397
ELEMENT_SET_NO = 999
REV_AT_EPOCH   = 85563
BSTAR          = .29645154E-3
MEAN_MOTION_DOT = .4164E-4
MEAN_MOTION_DDOT = 0

CCSDS_OMM_VERS = 2.0
CREATION_DATE  = 
ORIGINATOR     = 

OBJECT_NAME    = COSMOS 2151
OBJECT_ID      = 1991-042A
CENTER_NAME    = EARTH
REF_FRAME      = TEME
TIME_SYSTEM    = UTC
MEAN_ELEMENT_THEORY = SGP/SGP4

EPOCH          = 2026-01-06T05:49:44.080320
MEAN_MOTION    = 14.99811418
ECCENTRICITY   = .00111445
INCLINATION    = 82.4977
RA_OF_ASC_NODE = 143.8893
ARG_OF_PERICENTER = 270.7585
MEAN_ANOMALY   = 89.2362

EPHEMERIS_TYPE = 0
CLASSIFICATION_TYPE = U
NORAD_CAT_ID   = 21422
ELEMENT_SET_NO = 999
REV_AT_EPOCH   = 85383
BSTAR          = .23386807E-3
MEAN_MOTION_DOT = .2922E-4
MEAN_MOTION_DDOT = 0

